{
  "type": "FeatureCollection",
  "features": [
    {
      "type": "Feature",
      "properties": {
        "norad_id": 52912,
        "name": "GAOFEN-12 03",
        "group": "resource",
        "lat": 29.40721831265524,
        "lon": 67.45872687589967,
        "alt_km": 629.3187914259406,
        "timestamp": "2025-12-21T20:41:07.643501+00:00",
        "meta_object_name": "GAOFEN-12 03",
        "meta_object_id": "2022-069A",
        "meta_epoch": "2025-12-21T15:08:24.053280",
        "meta_mean_motion": 14.79625631,
        "meta_eccentricity": 0.00019272,
        "meta_inclination": 97.8488,
        "meta_ra_of_asc_node": 242.7738,
        "meta_arg_of_pericenter": 51.552,
        "meta_mean_anomaly": 308.5865,
        "meta_ephemeris_type": 0,
        "meta_classification_type": "U",
        "meta_norad_cat_id": 52912,
        "meta_element_set_no": 999,
        "meta_rev_at_epoch": 18835,
        "meta_bstar": 2.7815763e-05,
        "meta_mean_motion_dot": 1.58e-06,
        "meta_mean_motion_ddot": 0,
        "tle_line1": "1 52912U 22069A   25355.63083395  .00000158  00000+0  27816-4 0  9996",
        "tle_line2": "2 52912  97.8488 242.7738 0001927  51.5520 308.5865 14.79625631188359"
      },
      "geometry": {
        "type": "Point",
        "coordinates": [
          67.45872687589967,
          29.40721831265524
        ]
      }
    },
    {
      "type": "Feature",
      "properties": {
        "norad_id": 54754,
        "name": "SWOT",
        "group": "resource",
        "lat": 42.707996496414076,
        "lon": -73.61806890449401,
        "alt_km": 889.3039944901675,
        "timestamp": "2025-12-21T20:41:07.643510+00:00",
        "meta_object_name": "SWOT",
        "meta_object_id": "2022-173A",
        "meta_epoch": "2025-12-21T13:36:59.410656",
        "meta_mean_motion": 14.00168088,
        "meta_eccentricity": 3.571e-05,
        "meta_inclination": 77.6109,
        "meta_ra_of_asc_node": 275.0737,
        "meta_arg_of_pericenter": 87.2638,
        "meta_mean_anomaly": 272.8555,
        "meta_ephemeris_type": 0,
        "meta_classification_type": "U",
        "meta_norad_cat_id": 54754,
        "meta_element_set_no": 999,
        "meta_rev_at_epoch": 15429,
        "meta_bstar": 8.407796e-06,
        "meta_mean_motion_dot": 1e-07,
        "meta_mean_motion_ddot": 0,
        "tle_line1": "1 54754U 22173A   25355.56735429  .00000010  00000+0  84078-5 0  9993",
        "tle_line2": "2 54754  77.6109 275.0737 0000357  87.2638 272.8555 14.00168088154298"
      },
      "geometry": {
        "type": "Point",
        "coordinates": [
          -73.61806890449401,
          42.707996496414076
        ]
      }
    },
    {
      "type": "Feature",
      "properties": {
        "norad_id": 57654,
        "name": "GAOFEN-12 04",
        "group": "resource",
        "lat": -36.81703913665173,
        "lon": -82.54313738379298,
        "alt_km": 636.9195855821044,
        "timestamp": "2025-12-21T20:41:07.643520+00:00",
        "meta_object_name": "GAOFEN-12 04",
        "meta_object_id": "2023-123A",
        "meta_epoch": "2025-12-21T14:21:42.250752",
        "meta_mean_motion": 14.79723426,
        "meta_eccentricity": 0.00012187,
        "meta_inclination": 97.9128,
        "meta_ra_of_asc_node": 271.2214,
        "meta_arg_of_pericenter": 77.5807,
        "meta_mean_anomaly": 282.5541,
        "meta_ephemeris_type": 0,
        "meta_classification_type": "U",
        "meta_norad_cat_id": 57654,
        "meta_element_set_no": 999,
        "meta_rev_at_epoch": 12636,
        "meta_bstar": 0.00014557249,
        "meta_mean_motion_dot": 1.042e-05,
        "meta_mean_motion_ddot": 0,
        "tle_line1": "1 57654U 23123A   25355.59840568  .00001042  00000+0  14557-3 0  9994",
        "tle_line2": "2 57654  97.9128 271.2214 0001218  77.5807 282.5541 14.79723426126360"
      },
      "geometry": {
        "type": "Point",
        "coordinates": [
          -82.54313738379298,
          -36.81703913665173
        ]
      }
    },
    {
      "type": "Feature",
      "properties": {
        "norad_id": 59065,
        "name": "PARS 1",
        "group": "resource",
        "lat": -31.173593271665524,
        "lon": 142.4395277871659,
        "alt_km": 456.73827010102195,
        "timestamp": "2025-12-21T20:41:07.643530+00:00",
        "meta_object_name": "PARS 1",
        "meta_object_id": "2024-039Q",
        "meta_epoch": "2025-12-21T15:05:48.624000",
        "meta_mean_motion": 15.4116108,
        "meta_eccentricity": 0.00119504,
        "meta_inclination": 97.4645,
        "meta_ra_of_asc_node": 326.7513,
        "meta_arg_of_pericenter": 45.1927,
        "meta_mean_anomaly": 315.0289,
        "meta_ephemeris_type": 0,
        "meta_classification_type": "U",
        "meta_norad_cat_id": 59065,
        "meta_element_set_no": 999,
        "meta_rev_at_epoch": 10125,
        "meta_bstar": 0.00024307899,
        "meta_mean_motion_dot": 0.00010015,
        "meta_mean_motion_ddot": 0,
        "tle_line1": "1 59065U 24039Q   25355.62903500  .00010015  00000+0  24308-3 0  9994",
        "tle_line2": "2 59065  97.4645 326.7513 0011950  45.1927 315.0289 15.41161080101257"
      },
      "geometry": {
        "type": "Point",
        "coordinates": [
          142.4395277871659,
          -31.173593271665524
        ]
      }
    },
    {
      "type": "Feature",
      "properties": {
        "norad_id": 59371,
        "name": "RESURS-P 4",
        "group": "resource",
        "lat": 58.77213862024091,
        "lon": -70.1259080741438,
        "alt_km": 463.10948710274624,
        "timestamp": "2025-12-21T20:41:07.643539+00:00",
        "meta_object_name": "RESURS-P 4",
        "meta_object_id": "2024-061A",
        "meta_epoch": "2025-12-21T14:09:24.360192",
        "meta_mean_motion": 15.32150312,
        "meta_eccentricity": 9.51e-05,
        "meta_inclination": 97.256,
        "meta_ra_of_asc_node": 301.7388,
        "meta_arg_of_pericenter": 65.8076,
        "meta_mean_anomaly": 294.3266,
        "meta_ephemeris_type": 0,
        "meta_classification_type": "U",
        "meta_norad_cat_id": 59371,
        "meta_element_set_no": 999,
        "meta_rev_at_epoch": 9656,
        "meta_bstar": 0.0001093443,
        "meta_mean_motion_dot": 3.318e-05,
        "meta_mean_motion_ddot": 0,
        "tle_line1": "1 59371U 24061A   25355.58986528  .00003318  00000+0  10934-3 0  9993",
        "tle_line2": "2 59371  97.2560 301.7388 0000951  65.8076 294.3266 15.32150312 96564"
      },
      "geometry": {
        "type": "Point",
        "coordinates": [
          -70.1259080741438,
          58.77213862024091
        ]
      }
    },
    {
      "type": "Feature",
      "properties": {
        "norad_id": 59625,
        "name": "LEGION 1",
        "group": "resource",
        "lat": 46.018659808343806,
        "lon": -101.70930426926851,
        "alt_km": 514.2810656647862,
        "timestamp": "2025-12-21T20:41:07.643548+00:00",
        "meta_object_name": "LEGION 1",
        "meta_object_id": "2024-081A",
        "meta_epoch": "2025-12-21T13:45:53.436960",
        "meta_mean_motion": 15.16558272,
        "meta_eccentricity": 0.00036303,
        "meta_inclination": 97.5205,
        "meta_ra_of_asc_node": 70.1368,
        "meta_arg_of_pericenter": 276.9699,
        "meta_mean_anomaly": 83.1121,
        "meta_ephemeris_type": 0,
        "meta_classification_type": "U",
        "meta_norad_cat_id": 59625,
        "meta_element_set_no": 999,
        "meta_rev_at_epoch": 9061,
        "meta_bstar": 0.00020578853,
        "meta_mean_motion_dot": 3.948e-05,
        "meta_mean_motion_ddot": 0,
        "tle_line1": "1 59625U 24081A   25355.57353515  .00003948  00000+0  20579-3 0  9995",
        "tle_line2": "2 59625  97.5205  70.1368 0003630 276.9699  83.1121 15.16558272 90616"
      },
      "geometry": {
        "type": "Point",
        "coordinates": [
          -101.70930426926851,
          46.018659808343806
        ]
      }
    },
    {
      "type": "Feature",
      "properties": {
        "norad_id": 59626,
        "name": "LEGION 2",
        "group": "resource",
        "lat": -45.92483515238672,
        "lon": 78.35320440218084,
        "alt_km": 521.0246968701576,
        "timestamp": "2025-12-21T20:41:07.643557+00:00",
        "meta_object_name": "LEGION 2",
        "meta_object_id": "2024-081B",
        "meta_epoch": "2025-12-21T11:23:19.389408",
        "meta_mean_motion": 15.16571592,
        "meta_eccentricity": 0.00056557,
        "meta_inclination": 97.5209,
        "meta_ra_of_asc_node": 70.1266,
        "meta_arg_of_pericenter": 255.6629,
        "meta_mean_anomaly": 104.3976,
        "meta_ephemeris_type": 0,
        "meta_classification_type": "U",
        "meta_norad_cat_id": 59626,
        "meta_element_set_no": 999,
        "meta_rev_at_epoch": 9060,
        "meta_bstar": 0.00019771176,
        "meta_mean_motion_dot": 3.793e-05,
        "meta_mean_motion_ddot": 0,
        "tle_line1": "1 59626U 24081B   25355.47452997  .00003793  00000+0  19771-3 0  9999",
        "tle_line2": "2 59626  97.5209  70.1266 0005655 255.6629 104.3976 15.16571592 90607"
      },
      "geometry": {
        "type": "Point",
        "coordinates": [
          78.35320440218084,
          -45.92483515238672
        ]
      }
    }
  ]
}